AMC-18                  
1 29644U 06054B   16209.43053384 -.00000106  00000-0  00000+0 0  9995
2 29644   0.0517 273.0368 0002694 208.4808 234.0391  1.00270503 35345
MEASAT-3                
1 29648U 06056A   16208.55399630 -.00000256  00000-0  00000+0 0  9996
2 29648   0.0428 128.1246 0003512   7.3170 100.1533  1.00269582 35327
KIKU-8 (ETS-VIII)       
1 29656U 06059A   16208.91802458 -.00000259  00000-0  00000+0 0  9998
2 29656   4.9702  61.0962 0005007  49.2598 310.8340  1.00270937 35225
INSAT-4B                
1 30793U 07007A   16209.56849013 -.00000275  00000-0  00000+0 0  9994
2 30793   0.4758  89.6575 0003182 136.7705  17.3893  1.00271114 34343
SKYNET 5A               
1 30794U 07007B   16208.04438014 -.00000285  00000-0  00000+0 0  9993
2 30794   0.0669 354.8231 0003535 141.3912 279.1003  1.00270923 34428
ANIK F3                 
1 31102U 07009A   16209.38514481 -.00000017  00000-0  00000+0 0  9993
2 31102   0.0249  69.8827 0001729  58.1792 197.3554  1.00269942 34111
ASTRA 1L                
1 31306U 07016A   16208.84408481  .00000104  00000-0  00000+0 0  9995
2 31306   0.0906 296.0094 0000876 245.1545  86.8406  1.00270994 33816
GALAXY 17 (G-17)        
1 31307U 07016B   16208.36768112 -.00000189  00000-0  00000+0 0  9997
2 31307   0.0266  46.7928 0003040  76.5137 222.5410  1.00271332 33845
ZHONGXING-6B            
1 31800U 07031A   16208.28219148 -.00000376  00000-0  00000+0 0  9991
2 31800   0.0148  79.3528 0002846  51.1114  31.0623  1.00272314 33241
DIRECTV 10              
1 31862U 07032A   16207.44245812 -.00000116  00000-0  00000+0 0  9996
2 31862   0.0142 275.2840 0000511 245.1598 199.5581  1.00269335 33179
SPACEWAY 3              
1 32018U 07036A   16209.32353409 -.00000168  00000-0  00000+0 0  9992
2 32018   0.0154 239.1001 0000229 337.5315 110.3035  1.00271101 32902
BSAT-3A                 
1 32019U 07036B   16204.85868072 -.00000359  00000-0  00000+0 0  9995
2 32019   0.0193 188.9151 0003518 353.1913 177.8921  1.00267532 32809
INSAT-4CR               
1 32050U 07037A   16208.83661840 -.00000093  00000-0  00000+0 0  9992
2 32050   0.0907 268.8356 0004752 342.1361  69.1474  1.00271716 32623
OPTUS D2                
1 32252U 07044A   16209.38660664 -.00000200  00000-0  00000+0 0  9998
2 32252   0.0270 339.5339 0002923 151.7764 105.3396  1.00270631 32223
INTELSAT 11 (IS-11)     
1 32253U 07044B   16209.04780311 -.00000284  00000-0  00000+0 0  9996
2 32253   0.0639 257.2362 0002350 284.3680  97.7349  1.00275151 32302
STAR ONE C1             
1 32293U 07056A   16206.34039665 -.00000288  00000-0  00000+0 0  9996
2 32293   0.0144 302.5691 0002153 196.7090 220.7380  1.00267448 31861
SKYNET 5B               
1 32294U 07056B   16209.11646442  .00000126  00000-0  00000+0 0  9992
2 32294   0.0684 354.9659 0003290 135.8874 241.3872  1.00272353 31982
ASTRA 4A (SIRIUS 4)     
1 32299U 07057A   16208.31496633  .00000018  00000-0  00000+0 0  9994
2 32299   0.0596 279.3908 0002544 209.7904 293.4329  1.00272110 31731
HORIZONS-2              
1 32388U 07063B   16208.79139550 -.00000198  00000-0  00000+0 0  9994
2 32388   0.0153 339.2747 0002869 146.2922 189.0739  1.00270468 31651
THURAYA-3               
1 32404U 08001A   16208.90380046 -.00000313  00000-0  00000+0 0  9996
2 32404   4.2000 350.4958 0004464 134.9085 243.4718  1.00270252 31319
EXPRESS-AM33            
1 32478U 08003A   16207.80072447 -.00000294  00000-0  00000-0 0  9999
2 32478   0.0487 246.0247 0000891 336.0414 106.6010  1.00270589 31380
THOR 5                  
1 32487U 08006A   16209.08591021 -.00000025  00000-0  00000+0 0  9999
2 32487   0.0451 244.8694 0002337 248.4550 202.0258  1.00271821 30954
KIZUNA (WINDS)          
1 32500U 08007A   16209.37618807 -.00000275  00000-0  00000+0 0  9997
2 32500   0.1519  93.3084 0002621  16.7861 113.8029  1.00271526 30815
AMC-14                  
1 32708U 08011A   16207.98405593  .00000080  00000-0  00000+0 0  9996
2 32708  18.5107  67.8849 0039861   7.7955 240.6613  1.00271775 31866
DIRECTV 11              
1 32729U 08013A   16208.33611941 -.00000140  00000-0  00000+0 0  9995
2 32729   0.0306 227.4381 0000539 342.8692 115.9451  1.00271967 30701
ICO G1                  
1 32763U 08016A   16208.33303804 -.00000182  00000-0  00000+0 0  9998
2 32763   3.9720 351.1920 0002916 141.0418 199.2583  1.00272024 30235
VINASAT-1               
1 32767U 08018A   16207.78932382 -.00000342  00000-0  00000+0 0  9999
2 32767   0.0315 294.4856 0001694 215.9517 209.5650  1.00270453 30376
STAR ONE C2             
1 32768U 08018B   16207.35144966 -.00000278  00000-0  00000+0 0  9994
2 32768   0.0346 160.6488 0002639 358.4435 200.9117  1.00271295 30310
TIANLIAN 1-01           
1 32779U 08019A   16208.27359176 -.00000155  00000-0  10000-3 0  9999
2 32779   2.1411  77.6487 0030667 221.4616 183.9513  1.00273652 30247
AMOS-3                  
1 32794U 08022A   16208.18062132 -.00000049  00000-0  00000+0 0  9990
2 32794   0.0273 193.8257 0001294 272.5628 258.9143  1.00272382 30226
GALAXY 18 (G-18)        
1 32951U 08024A   16208.49562779  .00000010  00000-0  00000+0 0  9990
2 32951   0.0077  31.6546 0003131 102.6493 225.7136  1.00272715 29860
CHINASAT 9 (ZX 9)       
1 33051U 08028A   16208.90364037 -.00000263  00000-0  00000+0 0  9990
2 33051   0.0045   7.5781 0004066 112.1846 242.7688  1.00270437 29798
SKYNET 5C               
1 33055U 08030A   16208.17271730 -.00000154  00000-0  00000+0 0  9992
2 33055   0.0611   7.4769 0003976 134.5583 206.6005  1.00271851 29660
TURKSAT 3A              
1 33056U 08030B   16209.56152515  .00000129  00000-0  00000+0 0  9997
2 33056   0.0459 156.2163 0005273 341.4313  52.1287  1.00270696 29868
INTELSAT 25 (IS-25)     
1 33153U 08034A   16208.24212372 -.00000238  00000-0  00000+0 0  9993
2 33153   0.0370 250.3353 0002551 231.5695 238.1122  1.00271593 29404
BADR-6                  
1 33154U 08034B   16209.11646442  .00000128  00000-0  00000+0 0  9997
2 33154   0.0590  41.2714 0004813  56.1952 275.6620  1.00270359 29540
ECHOSTAR 11             
1 33207U 08035A   16207.46231262 -.00000070  00000-0  00000+0 0  9990
2 33207   0.0354 248.8075 0003287 257.1884 214.0183  1.00271362 29426
SUPERBIRD-C2            
1 33274U 08038A   16207.33797856 -.00000264  00000-0  00000+0 0  9994
2 33274   0.0404 254.8649 0000886 230.2708  83.9536  1.00272131 29148
AMC-21                  
1 33275U 08038B   16208.40414675  .00000021  00000-0  00000+0 0  9999
2 33275   0.0531 281.2660 0002539 213.0791 190.7592  1.00273464 29234
INMARSAT 4-F3           
1 33278U 08039A   16208.35588281 -.00000151  00000-0  00000+0 0  9997
2 33278   3.0177 358.1904 0002764 131.9847 204.4238  1.00271800 29031
NIMIQ 4                 
1 33373U 08044A   16208.35627921 -.00000235  00000-0  00000+0 0  9997
2 33373   0.0103  57.5238 0002254  59.6201 233.5754  1.00272194 28602
GALAXY 19 (G-19)        
1 33376U 08045A   16208.42359187 -.00000154  00000-0  00000+0 0  9995
2 33376   0.0164  79.8362 0002967  52.7545 227.4263  1.00271013 28610
VENESAT-1               
1 33414U 08055A   16208.27072631 -.00000252  00000-0  00000+0 0  9997
2 33414   0.0513 244.5548 0002420 282.3928 156.8692  1.00270545 28326
ASTRA 1M                
1 33436U 08057A   16208.10465918  .00000105  00000-0  00000+0 0  9995
2 33436   0.0393 245.4707 0005344 248.3825 227.2077  1.00270745 28253
CIEL-2                  
1 33453U 08063A   16208.40814703  .00000043  00000-0  00000+0 0  9995
2 33453   0.0445 276.8073 0002901 206.2976 199.4881  1.00272418 27947
EUTELSAT HOT BIRD 13C   
1 33459U 08065A   16208.11901088  .00000072  00000-0  00000+0 0  9996
2 33459   0.0587  64.8564 0005672  52.3580 242.8359  1.00271003 28021
EUTELSAT 48D            
1 33460U 08065B   16208.89264083  .00000108  00000-0  00000+0 0  9990
2 33460   0.0648 317.6567 0002129 193.6081 163.1390  1.00271781 27888
FENGYUN 2E              
1 33463U 08066A   16208.91178610 -.00000215  00000-0  00000+0 0  9997
2 33463   1.5766  63.3788 0003720 195.9184 100.2762  1.00276240 27863
EXPRESS-AM44            
1 33595U 09007A   16208.31598072 -.00000103  00000-0  00000+0 0  9997
2 33595   0.0342 229.0169 0000857 324.2572 213.9098  1.00272173 27330
NSS-9                   
1 33749U 09008A   16209.36855079  .00000055  00000-0  00000+0 0  9993
2 33749   0.0308 317.8359 0002044 171.4999 131.8724  1.00272337 27342
EUTELSAT HOT BIRD 13D   
1 33750U 09008B   16208.08104829  .00000142  00000-0  00000+0 0  9990
2 33750   0.0568 296.0662 0004913 234.6920 195.7183  1.00276422 27370
TELSTAR 11N             
1 34111U 09009A   16209.04794032 -.00000267  00000-0  00000+0 0  9990
2 34111   0.0240  70.7220 0002571  49.4170 164.7105  1.00268856 27195
EUTELSAT 10A            
1 34710U 09016A   16208.24153696  .00000054  00000-0  00000+0 0  9992
2 34710   0.0658  23.8198 0004870 102.7591 274.7257  1.00274107 26746
SES-7 (PROTOSTAR 2)     
1 34941U 09027A   16207.85533155 -.00000359  00000-0  00000+0 0  9997
2 34941   0.0385  72.4890 0000961 164.8354 122.8231  1.00270985 26397
MEASAT-3A               
1 35362U 09032A   16207.90132720 -.00000256  00000-0  00000+0 0  9996
2 35362   0.0498 236.4392 0002231 301.0387 182.5157  1.00272519 26016
GOES 14                 
1 35491U 09033A   16208.44485587 -.00000106  00000-0  00000+0 0  9996
2 35491   0.3181  97.1496 0004802 103.4525 159.3704  1.00272447 25932
SIRIUS FM-5             
1 35493U 09034A   16208.35618012 -.00000215  00000-0  00000+0 0  9991
2 35493   0.0112  57.3814 0000135 218.9269  70.2463  1.00271124 25742
TERRESTAR-1             
1 35496U 09035A   16208.40361272 -.00000067  00000-0  00000+0 0  9999
2 35496   3.1630 338.4933 0002699 154.1634 206.1567  1.00272235 25933
ASIASAT 5               
1 35696U 09042A   16208.42053510 -.00000322  00000-0  00000+0 0  9998
2 35696   0.0161  80.6435 0002005   2.6827 113.1106  1.00270912 25447
